[{"OBJECT_NAME":"COSMOS 2251 DEB","OBJECT_ID":"1993-036BEC","EPOCH":"2026-03-04T06:24:01.253088","MEAN_MOTION":14.61498176,"ECCENTRICITY":0.00123907,"INCLINATION":74.0242,"RA_OF_ASC_NODE":18.6513,"ARG_OF_PERICENTER":66.0433,"MEAN_ANOMALY":294.2029,"EPHEMERIS_TYPE":0,"CLASSIFICATION_TYPE":"U","NORAD_CAT_ID":36614,"ELEMENT_SET_NO":999,"REV_AT_EPOCH":66803,"BSTAR":0.002142471,"MEAN_MOTION_DOT":0.00010623,"MEAN_MOTION_DDOT":0},{"OBJECT_NAME":"COSMOS 2251 DEB","OBJECT_ID":"1993-036BEL","EPOCH":"2026-02-23T12:43:37.182144","MEAN_MOTION":14.76968215,"ECCENTRICITY":0.0065484,"INCLINATION":74.0161,"RA_OF_ASC_NODE":2.6562,"ARG_OF_PERICENTER":120.9498,"MEAN_ANOMALY":239.8134,"EPHEMERIS_TYPE":0,"CLASSIFICATION_TYPE":"U","NORAD_CAT_ID":36622,"ELEMENT_SET_NO":999,"REV_AT_EPOCH":67824,"BSTAR":0.00062497,"MEAN_MOTION_DOT":4.528e-5,"MEAN_MOTION_DDOT":0},{"OBJECT_NAME":"COSMOS 2251 DEB","OBJECT_ID":"1993-036BEW","EPOCH":"2026-02-22T14:36:44.922528","MEAN_MOTION":14.43608641,"ECCENTRICITY":0.00349375,"INCLINATION":74.0025,"RA_OF_ASC_NODE":158.5593,"ARG_OF_PERICENTER":253.8426,"MEAN_ANOMALY":105.8884,"EPHEMERIS_TYPE":0,"CLASSIFICATION_TYPE":"U","NORAD_CAT_ID":36632,"ELEMENT_SET_NO":999,"REV_AT_EPOCH":66252,"BSTAR":0.00078679809,"MEAN_MOTION_DOT":2.661e-5,"MEAN_MOTION_DDOT":0},{"OBJECT_NAME":"COSMOS 2251 DEB","OBJECT_ID":"1993-036BFE","EPOCH":"2026-03-04T11:23:08.935872","MEAN_MOTION":15.02460722,"ECCENTRICITY":0.00926681,"INCLINATION":74.0309,"RA_OF_ASC_NODE":354.7622,"ARG_OF_PERICENTER":52.5999,"MEAN_ANOMALY":308.3579,"EPHEMERIS_TYPE":0,"CLASSIFICATION_TYPE":"U","NORAD_CAT_ID":37084,"ELEMENT_SET_NO":999,"REV_AT_EPOCH":67494,"BSTAR":0.00098945451,"MEAN_MOTION_DOT":0.00014399,"MEAN_MOTION_DDOT":0},{"OBJECT_NAME":"COSMOS 2251 DEB","OBJECT_ID":"1993-036BFK","EPOCH":"2026-03-05T01:21:55.188864","MEAN_MOTION":14.5490524,"ECCENTRICITY":0.01291083,"INCLINATION":74.0391,"RA_OF_ASC_NODE":350.1219,"ARG_OF_PERICENTER":70.209,"MEAN_ANOMALY":291.294,"EPHEMERIS_TYPE":0,"CLASSIFICATION_TYPE":"U","NORAD_CAT_ID":37089,"ELEMENT_SET_NO":999,"REV_AT_EPOCH":67306,"BSTAR":0.0031251352,"MEAN_MOTION_DOT":0.00015024,"MEAN_MOTION_DDOT":0},{"OBJECT_NAME":"COSMOS 2251 DEB","OBJECT_ID":"1993-036BFQ","EPOCH":"2026-02-18T05:23:11.166720","MEAN_MOTION":14.38322796,"ECCENTRICITY":0.0084952,"INCLINATION":74.1128,"RA_OF_ASC_NODE":357.4013,"ARG_OF_PERICENTER":304.6936,"MEAN_ANOMALY":54.6234,"EPHEMERIS_TYPE":0,"CLASSIFICATION_TYPE":"U","NORAD_CAT_ID":37094,"ELEMENT_SET_NO":999,"REV_AT_EPOCH":85476,"BSTAR":0.0012532,"MEAN_MOTION_DOT":3.954e-5,"MEAN_MOTION_DDOT":0},{"OBJECT_NAME":"COSMOS 2251 DEB","OBJECT_ID":"1993-036BFR","EPOCH":"2026-03-02T07:09:26.465472","MEAN_MOTION":14.03767007,"ECCENTRICITY":0.01880311,"INCLINATION":73.8479,"RA_OF_ASC_NODE":49.7342,"ARG_OF_PERICENTER":93.7026,"MEAN_ANOMALY":268.5631,"EPHEMERIS_TYPE":0,"CLASSIFICATION_TYPE":"U","NORAD_CAT_ID":37095,"ELEMENT_SET_NO":999,"REV_AT_EPOCH":63752,"BSTAR":0.00098012534,"MEAN_MOTION_DOT":1.782e-5,"MEAN_MOTION_DDOT":0},{"OBJECT_NAME":"COSMOS 2251 DEB","OBJECT_ID":"1993-036BFX","EPOCH":"2026-03-01T23:59:26.963232","MEAN_MOTION":14.66239686,"ECCENTRICITY":0.0041685,"INCLINATION":74.0339,"RA_OF_ASC_NODE":301.2001,"ARG_OF_PERICENTER":5.5095,"MEAN_ANOMALY":354.6523,"EPHEMERIS_TYPE":0,"CLASSIFICATION_TYPE":"U","NORAD_CAT_ID":37101,"ELEMENT_SET_NO":999,"REV_AT_EPOCH":66833,"BSTAR":0.0010266,"MEAN_MOTION_DOT":5.702e-5,"MEAN_MOTION_DDOT":0},{"OBJECT_NAME":"COSMOS 2251 DEB","OBJECT_ID":"1993-036BGE","EPOCH":"2026-03-05T14:29:05.272800","MEAN_MOTION":14.42035642,"ECCENTRICITY":0.0091199,"INCLINATION":74.0424,"RA_OF_ASC_NODE":287.0855,"ARG_OF_PERICENTER":342.4668,"MEAN_ANOMALY":17.3344,"EPHEMERIS_TYPE":0,"CLASSIFICATION_TYPE":"U","NORAD_CAT_ID":37108,"ELEMENT_SET_NO":999,"REV_AT_EPOCH":86701,"BSTAR":0.0010922,"MEAN_MOTION_DOT":3.743e-5,"MEAN_MOTION_DDOT":0},{"OBJECT_NAME":"COSMOS 2251 DEB","OBJECT_ID":"1993-036BGY","EPOCH":"2026-03-01T01:33:38.892672","MEAN_MOTION":14.73348638,"ECCENTRICITY":0.01207011,"INCLINATION":73.9501,"RA_OF_ASC_NODE":201.0621,"ARG_OF_PERICENTER":60.0186,"MEAN_ANOMALY":301.2902,"EPHEMERIS_TYPE":0,"CLASSIFICATION_TYPE":"U","NORAD_CAT_ID":37126,"ELEMENT_SET_NO":999,"REV_AT_EPOCH":9252,"BSTAR":0.00023487256,"MEAN_MOTION_DOT":1.671e-5,"MEAN_MOTION_DDOT":0},{"OBJECT_NAME":"COSMOS 2251 DEB","OBJECT_ID":"1993-036BHJ","EPOCH":"2026-03-05T18:12:23.611968","MEAN_MOTION":13.60645383,"ECCENTRICITY":0.0395289,"INCLINATION":73.9359,"RA_OF_ASC_NODE":200.3153,"ARG_OF_PERICENTER":197.3362,"MEAN_ANOMALY":161.393,"EPHEMERIS_TYPE":0,"CLASSIFICATION_TYPE":"U","NORAD_CAT_ID":37270,"ELEMENT_SET_NO":999,"REV_AT_EPOCH":78198,"BSTAR":0.0063125,"MEAN_MOTION_DOT":7.982e-5,"MEAN_MOTION_DDOT":0},{"OBJECT_NAME":"COSMOS 2251 DEB","OBJECT_ID":"1993-036BHS","EPOCH":"2026-03-03T17:42:21.154176","MEAN_MOTION":14.15529534,"ECCENTRICITY":0.02981434,"INCLINATION":73.7837,"RA_OF_ASC_NODE":203.0888,"ARG_OF_PERICENTER":11.081,"MEAN_ANOMALY":47.5735,"EPHEMERIS_TYPE":0,"CLASSIFICATION_TYPE":"U","NORAD_CAT_ID":37278,"ELEMENT_SET_NO":999,"REV_AT_EPOCH":64975,"BSTAR":0.00087850859,"MEAN_MOTION_DOT":2.617e-5,"MEAN_MOTION_DDOT":0},{"OBJECT_NAME":"COSMOS 2251 DEB","OBJECT_ID":"1993-036BHU","EPOCH":"2026-03-01T14:12:16.196832","MEAN_MOTION":14.1982047,"ECCENTRICITY":0.01307043,"INCLINATION":74.0295,"RA_OF_ASC_NODE":276.0526,"ARG_OF_PERICENTER":25.3733,"MEAN_ANOMALY":335.3752,"EPHEMERIS_TYPE":0,"CLASSIFICATION_TYPE":"U","NORAD_CAT_ID":37280,"ELEMENT_SET_NO":999,"REV_AT_EPOCH":58442,"BSTAR":0.00098092165,"MEAN_MOTION_DOT":2.241e-5,"MEAN_MOTION_DDOT":0},{"OBJECT_NAME":"COSMOS 2251 DEB","OBJECT_ID":"1993-036BHY","EPOCH":"2026-02-05T07:55:19.503840","MEAN_MOTION":14.13024671,"ECCENTRICITY":0.0163535,"INCLINATION":74.0143,"RA_OF_ASC_NODE":60.0665,"ARG_OF_PERICENTER":200.9081,"MEAN_ANOMALY":178.3706,"EPHEMERIS_TYPE":0,"CLASSIFICATION_TYPE":"U","NORAD_CAT_ID":37284,"ELEMENT_SET_NO":999,"REV_AT_EPOCH":59946,"BSTAR":0.0017497,"MEAN_MOTION_DOT":3.683e-5,"MEAN_MOTION_DDOT":0},{"OBJECT_NAME":"COSMOS 2251 DEB","OBJECT_ID":"1993-036BJG","EPOCH":"2026-03-04T21:12:32.367744","MEAN_MOTION":14.03970333,"ECCENTRICITY":0.02100802,"INCLINATION":74.127,"RA_OF_ASC_NODE":267.4433,"ARG_OF_PERICENTER":249.9563,"MEAN_ANOMALY":107.885,"EPHEMERIS_TYPE":0,"CLASSIFICATION_TYPE":"U","NORAD_CAT_ID":37292,"ELEMENT_SET_NO":999,"REV_AT_EPOCH":61001,"BSTAR":0.0014442738,"MEAN_MOTION_DOT":2.752e-5,"MEAN_MOTION_DDOT":0},{"OBJECT_NAME":"COSMOS 2251 DEB","OBJECT_ID":"1993-036BJK","EPOCH":"2026-03-04T03:56:06.389376","MEAN_MOTION":14.65827607,"ECCENTRICITY":0.00472998,"INCLINATION":74.0058,"RA_OF_ASC_NODE":124.5875,"ARG_OF_PERICENTER":282.9247,"MEAN_ANOMALY":76.6641,"EPHEMERIS_TYPE":0,"CLASSIFICATION_TYPE":"U","NORAD_CAT_ID":37295,"ELEMENT_SET_NO":999,"REV_AT_EPOCH":83497,"BSTAR":0.00071054315,"MEAN_MOTION_DOT":3.913e-5,"MEAN_MOTION_DDOT":0}]
